{
  "norad_id": 67724,
  "name": "STARLINK-36752",
  "history": [
    {
      "epoch": "2026-03-28T21:01:22.276992Z",
      "apogee_km": 466.7844965518125,
      "perigee_km": 464.25562839408667,
      "latitude_deg": -2.086063466667209e-05,
      "longitude_deg": 0.535467970939766,
      "height_km": 468.4500140567542,
      "semi_major_axis_km": 6843.657062472949,
      "eccentricity": 0.00018476,
      "inclination_deg": 97.2859,
      "raan_deg": 142.1684,
      "arg_perigee_deg": 81.8592,
      "mean_anomaly_deg": 278.286,
      "mean_motion_rev_day": 15.33452768
    },
    {
      "epoch": "2026-03-29T04:51:12.270240Z",
      "apogee_km": 466.709874816077,
      "perigee_km": 464.22290934339617,
      "latitude_deg": -1.1773918509927077e-05,
      "longitude_deg": -116.92192774289916,
      "height_km": 468.4697752931069,
      "semi_major_axis_km": 6843.603392079736,
      "eccentricity": 0.0001817,
      "inclination_deg": 97.2837,
      "raan_deg": 142.4909,
      "arg_perigee_deg": 85.1213,
      "mean_anomaly_deg": 275.0237,
      "mean_motion_rev_day": 15.33470807
    },
    {
      "epoch": "2026-03-30T01:12:35.152704Z",
      "apogee_km": 466.27013634504056,
      "perigee_km": 460.8104778539755,
      "latitude_deg": 2.289616685950409e-06,
      "longitude_deg": -62.26767851147581,
      "height_km": 468.68647366195927,
      "semi_major_axis_km": 6841.677307099508,
      "eccentricity": 0.000399,
      "inclination_deg": 97.2843,
      "raan_deg": 143.3265,
      "arg_perigee_deg": 138.2688,
      "mean_anomaly_deg": 221.886,
      "mean_motion_rev_day": 15.34118412
    },
    {
      "epoch": "2026-03-30T01:12:35.153568Z",
      "apogee_km": 466.27027020427886,
      "perigee_km": 460.8103380484945,
      "latitude_deg": 0.00010054230433895915,
      "longitude_deg": -62.26769461091742,
      "height_km": 468.6865567002186,
      "semi_major_axis_km": 6841.677304126387,
      "eccentricity": 0.00039902,
      "inclination_deg": 97.2843,
      "raan_deg": 143.3265,
      "arg_perigee_deg": 138.2688,
      "mean_anomaly_deg": 221.8861,
      "mean_motion_rev_day": 15.34118413
    },
    {
      "epoch": "2026-03-30T14:00:03.000384Z",
      "apogee_km": 466.62053485659,
      "perigee_km": 464.824432373709,
      "latitude_deg": 58.805045155666186,
      "longitude_deg": 93.74686291985472,
      "height_km": 474.8990228224127,
      "semi_major_axis_km": 6843.859483615149,
      "eccentricity": 0.00013122,
      "inclination_deg": 97.2846,
      "raan_deg": 143.8516,
      "arg_perigee_deg": 83.8905,
      "mean_anomaly_deg": 335.5941,
      "mean_motion_rev_day": 15.33384736
    },
    {
      "epoch": "2026-03-30T21:34:24.086496Z",
      "apogee_km": 465.99787728660067,
      "perigee_km": 465.3373132670649,
      "latitude_deg": 6.568849734964665e-05,
      "longitude_deg": -7.721279425521242,
      "height_km": 468.612114469448,
      "semi_major_axis_km": 6843.8045952768325,
      "eccentricity": 4.826e-05,
      "inclination_deg": 97.2837,
      "raan_deg": 144.1631,
      "arg_perigee_deg": 59.6709,
      "mean_anomaly_deg": 300.4582,
      "mean_motion_rev_day": 15.33403183
    },
    {
      "epoch": "2026-03-31T13:14:04.016832Z",
      "apogee_km": 466.33911778585934,
      "perigee_km": 464.57483925819724,
      "latitude_deg": -3.8431752281501536e-05,
      "longitude_deg": 117.36208011586493,
      "height_km": 468.3911530383285,
      "semi_major_axis_km": 6843.593978522028,
      "eccentricity": 0.0001289,
      "inclination_deg": 97.2841,
      "raan_deg": 144.806,
      "arg_perigee_deg": 78.5,
      "mean_anomaly_deg": 281.6387,
      "mean_motion_rev_day": 15.33473971
    },
    {
      "epoch": "2026-04-01T03:19:45.734592Z",
      "apogee_km": 466.2993607221815,
      "perigee_km": 464.6904228644207,
      "latitude_deg": -3.345887765381407e-05,
      "longitude_deg": -94.06220157693971,
      "height_km": 468.58419145051295,
      "semi_major_axis_km": 6843.631891793301,
      "eccentricity": 0.00011755,
      "inclination_deg": 97.2838,
      "raan_deg": 145.3844,
      "arg_perigee_deg": 88.5102,
      "mean_anomaly_deg": 271.6275,
      "mean_motion_rev_day": 15.33461228
    },
    {
      "epoch": "2026-04-02T13:47:02.409216Z",
      "apogee_km": 466.1970838500092,
      "perigee_km": 464.7625248954764,
      "latitude_deg": 4.420044119266876e-05,
      "longitude_deg": 109.11721096605628,
      "height_km": 467.9262231760654,
      "semi_major_axis_km": 6843.616804372742,
      "eccentricity": 0.00010481,
      "inclination_deg": 97.2826,
      "raan_deg": 146.7983,
      "arg_perigee_deg": 22.0264,
      "mean_anomaly_deg": 338.1024,
      "mean_motion_rev_day": 15.33466299
    },
    {
      "epoch": "2026-04-02T21:36:52.563168Z",
      "apogee_km": 466.2427690464938,
      "perigee_km": 464.6829757635751,
      "latitude_deg": 8.000380264384799e-05,
      "longitude_deg": -8.340359403159871,
      "height_km": 468.5469642809453,
      "semi_major_axis_km": 6843.599872405034,
      "eccentricity": 0.00011396,
      "inclination_deg": 97.2834,
      "raan_deg": 147.1213,
      "arg_perigee_deg": 88.0755,
      "mean_anomaly_deg": 272.0619,
      "mean_motion_rev_day": 15.3347199
    },
    {
      "epoch": "2026-04-03T16:24:29.860416Z",
      "apogee_km": 466.55438056224557,
      "perigee_km": 464.654557930382,
      "latitude_deg": -7.183817264901469e-05,
      "longitude_deg": 69.75362513920061,
      "height_km": 468.7203376609517,
      "semi_major_axis_km": 6843.7414692463135,
      "eccentricity": 0.0001388,
      "inclination_deg": 97.2824,
      "raan_deg": 147.8925,
      "arg_perigee_deg": 90.3622,
      "mean_anomaly_deg": 269.7779,
      "mean_motion_rev_day": 15.33424399
    },
    {
      "epoch": "2026-04-04T17:27:58.810464Z",
      "apogee_km": 466.63585095482995,
      "perigee_km": 464.37197454089255,
      "latitude_deg": 3.831499711007374e-05,
      "longitude_deg": 53.883988019916124,
      "height_km": 468.5250786505283,
      "semi_major_axis_km": 6843.640912747861,
      "eccentricity": 0.0001654,
      "inclination_deg": 97.2835,
      "raan_deg": 148.9226,
      "arg_perigee_deg": 85.5293,
      "mean_anomaly_deg": 274.6139,
      "mean_motion_rev_day": 15.33458196
    },
    {
      "epoch": "2026-04-05T04:25:45.794784Z",
      "apogee_km": 466.35757150178597,
      "perigee_km": 464.814996273597,
      "latitude_deg": 3.64161637149699e-05,
      "longitude_deg": -110.56171684288151,
      "height_km": 468.11182389228156,
      "semi_major_axis_km": 6843.723283887691,
      "eccentricity": 0.0001127,
      "inclination_deg": 97.2843,
      "raan_deg": 149.3729,
      "arg_perigee_deg": 40.6481,
      "mean_anomaly_deg": 319.4846,
      "mean_motion_rev_day": 15.33430511
    }
  ]
}